CTC1_L_00645007-03
1 10062U 22784T   26075.70039352  .00000000  00000+0  00000-0 0  9990
2 10062  55.0000 180.0000 0000000   0.0000 144.0000  3.63177864    15
CTC1_L_00645007-04
1 10063U 22813L   26075.70039352  .00000000  00000+0  00000-0 0  9994
2 10063  55.0000 180.0000 0000000   0.0000 180.0000  3.63177864    16
CTC1_L_00645007-05
1 10064U 25899PN  26075.70039352  .00000000  00000+0  00000-0 0  9992
2 10064  55.0000 180.0000 0000000   0.0000 216.0000  3.63177864    17
CTC1_L_00645007-06
1 10065U 23552WV  26075.70039352  .00000000  00000+0  00000-0 0  9997
2 10065  55.0000 180.0000 0000000   0.0000 252.0000  3.63177864    18
CTC1_L_00645007-07
1 10066U 26656SP  26075.70039352  .00000000  00000+0  00000-0 0  9996
2 10066  55.0000 180.0000 0000000   0.0000 288.0000  3.63177864    18
CTC1_L_00645007-08
1 10067U 26322EX  26075.70039352  .00000000  00000+0  00000-0 0  9997
2 10067  55.0000 180.0000 0000000   0.0000 324.0000  3.63177864    10
CTC1_L_00645007-09
1 10068U 24834ZX  26075.70039352  .00000000  00000+0  00000-0 0  9994
2 10068  55.0000 180.0000 0000000   0.0000   0.0000  3.63177864    12
CTC1_L_00645007-10
1 10069U 23818MX  26075.70039352  .00000000  00000+0  00000-0 0  9996
2 10069  55.0000 180.0000 0000000   0.0000  36.0000  3.63177864    12
CTC1_L_00645008-01
1 10070U 25765MX  26075.70039352  .00000000  00000+0  00000-0 0  9991
2 10070  55.0000 210.0000 0000000   0.0000  84.0000  3.63177864    11
CTC1_L_00645008-02
1 10071U 24334CL  26075.70039352  .00000000  00000+0  00000-0 0  9993
2 10071  55.0000 210.0000 0000000   0.0000 120.0000  3.63177864    13
CTC1_L_00645008-03
1 10072U 25326XL  26075.70039352  .00000000  00000+0  00000-0 0  9996
2 10072  55.0000 210.0000 0000000   0.0000 156.0000  3.63177864    13
CTC1_L_00645008-04
1 10073U 25435NX  26075.70039352  .00000000  00000+0  00000-0 0  9998
2 10073  55.0000 210.0000 0000000   0.0000 192.0000  3.63177864    14
CTC1_L_00645008-05
1 10074U 22329EJ  26075.70039352  .00000000  00000+0  00000-0 0  9998
2 10074  55.0000 210.0000 0000000   0.0000 228.0000  3.63177864    15
CTC1_L_00645008-06
1 10075U 22131KO  26075.70039352  .00000000  00000+0  00000-0 0  9990
2 10075  55.0000 210.0000 0000000   0.0000 264.0000  3.63177864    16
CTC1_L_00645008-07
1 10076U 22274RV  26075.70039352  .00000000  00000+0  00000-0 0  9999
2 10076  55.0000 210.0000 0000000   0.0000 300.0000  3.63177864    18
CTC1_L_00645008-08
1 10077U 22197MA  26075.70039352  .00000000  00000+0  00000-0 0  9994
2 10077  55.0000 210.0000 0000000   0.0000 336.0000  3.63177864    18
CTC1_L_00645008-09
1 10078U 24038ZS  26075.70039352  .00000000  00000+0  00000-0 0  9991
2 10078  55.0000 210.0000 0000000   0.0000  12.0000  3.63177864    10
CTC1_L_00645008-10
1 10079U 24082HL  26075.70039352  .00000000  00000+0  00000-0 0  9991
2 10079  55.0000 210.0000 0000000   0.0000  48.0000  3.63177864    10
CTC1_L_00645009-01
1 10080U 25408KF  26075.70039352  .00000000  00000+0  00000-0 0  9996
2 10080  55.0000 240.0000 0000000   0.0000  96.0000  3.63177864    18
CTC1_L_00645009-02
1 10081U 22422AK  26075.70039352  .00000000  00000+0  00000-0 0  9990
2 10081  55.0000 240.0000 0000000   0.0000 132.0000  3.63177864    10
CTC1_L_00645009-03
1 10082U 22802ZJ  26075.70039352  .00000000  00000+0  00000-0 0  9993
2 10082  55.0000 240.0000 0000000   0.0000 168.0000  3.63177864    10
CTC1_L_00645009-04
1 10083U 26305UN  26075.70039352  .00000000  00000+0  00000-0 0  9996
2 10083  55.0000 240.0000 0000000   0.0000 204.0000  3.63177864    12
CTC1_L_00645009-05
1 10084U 22628RA  26075.70039352  .00000000  00000+0  00000-0 0  9991
2 10084  55.0000 240.0000 0000000   0.0000 240.0000  3.63177864    13
CTC1_L_00645009-06
1 10085U 26604LN  26075.70039352  .00000000  00000+0  00000-0 0  9990
2 10085  55.0000 240.0000 0000000   0.0000 276.0000  3.63177864    13
CTC1_L_00645009-07
1 10086U 25554VI  26075.70039352  .00000000  00000+0  00000-0 0  9994
2 10086  55.0000 240.0000 0000000   0.0000 312.0000  3.63177864    15
CTC1_L_00645009-08
1 10087U 26824HG  26075.70039352  .00000000  00000+0  00000-0 0  9996
2 10087  55.0000 240.0000 0000000   0.0000 348.0000  3.63177864    15
CTC1_L_00645009-09
1 10088U 24787YU  26075.70039352  .00000000  00000+0  00000-0 0  9993
2 10088  55.0000 240.0000 0000000   0.0000  24.0000  3.63177864    17
CTC1_L_00645009-10
1 10089U 23754ES  26075.70039352  .00000000  00000+0  00000-0 0  9997
2 10089  55.0000 240.0000 0000000   0.0000  60.0000  3.63177864    18
CTC1_L_00645010-01
1 10090U 24068OD  26075.70039352  .00000000  00000+0  00000-0 0  9998
2 10090  55.0000 270.0000 0000000   0.0000 108.0000  3.63177864    16
CTC1_L_00645010-02
1 10091U 23895FA  26075.70039352  .00000000  00000+0  00000-0 0  9996
2 10091  55.0000 270.0000 0000000   0.0000 144.0000  3.63177864    17
CTC1_L_00645010-03
1 10092U 24393KS  26075.70039352  .00000000  00000+0  00000-0 0  9991
2 10092  55.0000 270.0000 0000000   0.0000 180.0000  3.63177864    18
CTC1_L_00645010-04
1 10093U 25814SP  26075.70039352  .00000000  00000+0  00000-0 0  9991
2 10093  55.0000 270.0000 0000000   0.0000 216.0000  3.63177864    19
CTC1_L_00645010-05
1 10094U 22997ZK  26075.70039352  .00000000  00000+0  00000-0 0  9991
2 10094  55.0000 270.0000 0000000   0.0000 252.0000  3.63177864    10
CTC1_L_00645010-06
1 10095U 26256XO  26075.70039352  .00000000  00000+0  00000-0 0  9994
2 10095  55.0000 270.0000 0000000   0.0000 288.0000  3.63177864    10
CTC1_L_00645010-07
1 10096U 22037MG  26075.70039352  .00000000  00000+0  00000-0 0  9998
2 10096  55.0000 270.0000 0000000   0.0000 324.0000  3.63177864    12
CTC1_L_00645010-08
1 10097U 25441AO  26075.70039352  .00000000  00000+0  00000-0 0  9991
2 10097  55.0000 270.0000 0000000   0.0000   0.0000  3.63177864    14
CTC1_L_00645010-09
1 10098U 24467VG  26075.70039352  .00000000  00000+0  00000-0 0  9999
2 10098  55.0000 270.0000 0000000   0.0000  36.0000  3.63177864    14
CTC1_L_00645010-10
1 10099U 24087MD  26075.70039352  .00000000  00000+0  00000-0 0  9998
2 10099  55.0000 270.0000 0000000   0.0000  72.0000  3.63177864    15
CTC1_L_00645011-01
1 10100U 25721VL  26075.70039352  .00000000  00000+0  00000-0 0  9997
2 10100  55.0000 300.0000 0000000   0.0000 120.0000  3.63177864    16
CTC1_L_00645011-02
1 10101U 22752RP  26075.70039352  .00000000  00000+0  00000-0 0  9999
2 10101  55.0000 300.0000 0000000   0.0000 156.0000  3.63177864    16
CTC1_L_00645011-03
1 10102U 22197XH  26075.70039352  .00000000  00000+0  00000-0 0  9993
2 10102  55.0000 300.0000 0000000   0.0000 192.0000  3.63177864    17
CTC1_L_00645011-04
1 10103U 26251TX  26075.70039352  .00000000  00000+0  00000-0 0  9999
2 10103  55.0000 300.0000 0000000   0.0000 228.0000  3.63177864    18
CTC1_L_00645011-05
1 10104U 25425LR  26075.70039352  .00000000  00000+0  00000-0 0  9992
2 10104  55.0000 300.0000 0000000   0.0000 264.0000  3.63177864    19
CTC1_L_00645011-06
1 10105U 25494PH  26075.70039352  .00000000  00000+0  00000-0 0  9999
2 10105  55.0000 300.0000 0000000   0.0000 300.0000  3.63177864    11
CTC1_L_00645011-07
1 10106U 22728GG  26075.70039352  .00000000  00000+0  00000-0 0  9997
2 10106  55.0000 300.0000 0000000   0.0000 336.0000  3.63177864    11
CTC1_L_00645011-08
1 10107U 26807VP  26075.70039352  .00000000  00000+0  00000-0 0  9990
2 10107  55.0000 300.0000 0000000   0.0000  12.0000  3.63177864    13
CTC1_L_00645011-09
1 10108U 22105ZQ  26075.70039352  .00000000  00000+0  00000-0 0  9998
2 10108  55.0000 300.0000 0000000   0.0000  48.0000  3.63177864    13
CTC1_L_00645011-10
1 10109U 23525CS  26075.70039352  .00000000  00000+0  00000-0 0  9996
2 10109  55.0000 300.0000 0000000   0.0000  84.0000  3.63177864    14
CTC1_L_00645012-01
1 10110U 26583YS  26075.70039352  .00000000  00000+0  00000-0 0  9995
2 10110  55.0000 330.0000 0000000   0.0000 132.0000  3.63177864    13
CTC1_L_00645012-02
1 10111U 23164SG  26075.70039352  .00000000  00000+0  00000-0 0  9998
2 10111  55.0000 330.0000 0000000   0.0000 168.0000  3.63177864    13
CTC1_L_00645012-03
1 10112U 26885PF  26075.70039352  .00000000  00000+0  00000-0 0  9992
2 10112  55.0000 330.0000 0000000   0.0000 204.0000  3.63177864    15
CTC1_L_00645012-04
1 10113U 26898FK  26075.70039352  .00000000  00000+0  00000-0 0  9997
2 10113  55.0000 330.0000 0000000   0.0000 240.0000  3.63177864    16
CTC1_L_00645012-05
1 10114U 24610IC  26075.70039352  .00000000  00000+0  00000-0 0  9998
2 10114  55.0000 330.0000 0000000   0.0000 276.0000  3.63177864    16
CTC1_L_00645012-06
1 10115U 23935FM  26075.70039352  .00000000  00000+0  00000-0 0  9998
2 10115  55.0000 330.0000 0000000   0.0000 312.0000  3.63177864    18
CTC1_L_00645012-07
1 10116U 25473SY  26075.70039352  .00000000  00000+0  00000-0 0  9998
2 10116  55.0000 330.0000 0000000   0.0000 348.0000  3.63177864    18
CTC1_L_00645012-08
1 10117U 23495CB  26075.70039352  .00000000  00000+0  00000-0 0  9991
2 10117  55.0000 330.0000 0000000   0.0000  24.0000  3.63177864    10
CTC1_L_00645012-09
1 10118U 22325SP  26075.70039352  .00000000  00000+0  00000-0 0  9993
2 10118  55.0000 330.0000 0000000   0.0000  60.0000  3.63177864    11
CTC1_L_00645012-10
1 10119U 24375RH  26075.70039352  .00000000  00000+0  00000-0 0  9991
2 10119  55.0000 330.0000 0000000   0.0000  96.0000  3.63177864    11
